GLOBALSTAR M023 [+]     
1 25621U 99004A   23329.08178267 -.00000160  00000+0 -31336-3 0  9993
2 25621  52.0130 349.3300 0009649 306.4670  92.7962 12.62447414143812
GLOBALSTAR M040 [-]     
1 25622U 99004B   23328.54796288  .00000002  00000+0  59311-3 0  9999
2 25622  51.9936 354.2773 0000472 201.8137 323.2834 12.61960790143204
GLOBALSTAR M036 [-]     
1 25623U 99004C   23329.17571125 -.00000039  00000+0  63984-3 0  9993
2 25623  51.9975 302.6847 0011624  41.8139  43.9338 11.86560956111297
GLOBALSTAR M038 [-]     
1 25624U 99004D   23328.57457347 -.00000081  00000+0  11754-3 0  9991
2 25624  51.9976 274.8118 0001727 327.4335  82.1095 12.32488292132016
GLOBALSTAR M022 [-]     
1 25649U 99012A   23328.62516622 -.00000052  00000+0  42044-3 0  9999
2 25649  52.0063  41.9110 0003232 122.8351  44.7900 12.02472259107817
GLOBALSTAR M041 [-]     
1 25650U 99012B   23329.13992334 -.00000054  00000+0  40958-3 0  9990
2 25650  52.0020 264.5861 0001530 293.3271  66.7404 11.96649246110284
GLOBALSTAR M046 [-]     
1 25651U 99012C   23328.51480531 -.00000133  00000+0 -49021-3 0  9992
2 25651  52.0075  13.1752 0002337 186.3810 320.9551 12.09378334114619
GLOBALSTAR M037 [+]     
1 25652U 99012D   23328.73348458 -.00000058  00000+0  25538-3 0  9990
2 25652  51.9983 121.2270 0001998  36.0216  67.5644 12.62389582139222
